{
  "type": "FeatureCollection",
  "features": [
    {
      "type": "Feature",
      "properties": {
        "norad_id": 54259,
        "name": "EUTELSAT 10B",
        "group": "eutelsat",
        "lat": 0.06555503097002593,
        "lon": 165.5925946648069,
        "alt_km": 35783.651178218744,
        "timestamp": "2025-12-27T03:58:43.849191+00:00",
        "meta_object_name": "EUTELSAT 10B",
        "meta_object_id": "2022-157A",
        "meta_epoch": "2025-12-25T22:01:38.544672",
        "meta_mean_motion": 1.00270219,
        "meta_eccentricity": 6.649e-05,
        "meta_inclination": 0.0617,
        "meta_ra_of_asc_node": 95.4372,
        "meta_arg_of_pericenter": 60.6723,
        "meta_mean_anomaly": 278.9927,
        "meta_ephemeris_type": 0,
        "meta_classification_type": "U",
        "meta_norad_cat_id": 54259,
        "meta_element_set_no": 999,
        "meta_rev_at_epoch": 1128,
        "meta_bstar": 0,
        "meta_mean_motion_dot": 9e-07,
        "meta_mean_motion_ddot": 0,
        "tle_line1": "1 54259U 22157A   25359.91780723  .00000090  00000+0  00000+0 0  9990",
        "tle_line2": "2 54259   0.0617  95.4372 0000664  60.6723 278.9927  1.00270219 11289"
      },
      "geometry": {
        "type": "Point",
        "coordinates": [
          165.5925946648069,
          0.06555503097002593
        ]
      }
    },
    {
      "type": "Feature",
      "properties": {
        "norad_id": 59346,
        "name": "EUTELSAT 36D",
        "group": "eutelsat",
        "lat": 0.009164702799639716,
        "lon": -168.53432763282467,
        "alt_km": 35786.89007640645,
        "timestamp": "2025-12-27T03:58:43.849202+00:00",
        "meta_object_name": "EUTELSAT 36D",
        "meta_object_id": "2024-059A",
        "meta_epoch": "2025-12-26T16:40:36.610752",
        "meta_mean_motion": 1.00273292,
        "meta_eccentricity": 4.31e-05,
        "meta_inclination": 0.0185,
        "meta_ra_of_asc_node": 35.7347,
        "meta_arg_of_pericenter": 291.3684,
        "meta_mean_anomaly": 54.3762,
        "meta_ephemeris_type": 0,
        "meta_classification_type": "U",
        "meta_norad_cat_id": 59346,
        "meta_element_set_no": 999,
        "meta_rev_at_epoch": 641,
        "meta_bstar": 0,
        "meta_mean_motion_dot": 1.78e-06,
        "meta_mean_motion_ddot": 0,
        "tle_line1": "1 59346U 24059A   25360.69486818  .00000178  00000+0  00000+0 0  9997",
        "tle_line2": "2 59346   0.0185  35.7347 0000431 291.3684  54.3762  1.00273292  6417"
      },
      "geometry": {
        "type": "Point",
        "coordinates": [
          -168.53432763282467,
          0.009164702799639716
        ]
      }
    }
  ]
}